{
    "links": {
        "self": "http://www.neowsapp.com/rest/v1/neo/3177218?api_key=iIulBulltgU6a56xZRHN4H3l9WmuAYTsLGpBGhQ2"
    },
    "id": "3177218",
    "neo_reference_id": "3177218",
    "name": "(2004 FK5)",
    "designation": "2004 FK5",
    "nasa_jpl_url": "http://ssd.jpl.nasa.gov/sbdb.cgi?sstr=3177218",
    "absolute_magnitude_h": 26.8,
    "estimated_diameter": {
        "kilometers": {
            "estimated_diameter_min": 0.0116025908,
            "estimated_diameter_max": 0.0259441818
        },
        "meters": {
            "estimated_diameter_min": 11.6025908209,
            "estimated_diameter_max": 25.9441817907
        },
        "miles": {
            "estimated_diameter_min": 0.0072095135,
            "estimated_diameter_max": 0.0161209622
        },
        "feet": {
            "estimated_diameter_min": 38.066244069,
            "estimated_diameter_max": 85.1187093863
        }
    },
    "is_potentially_hazardous_asteroid": false,
    "close_approach_data": [
        {
            "close_approach_date": "2004-03-23",
            "close_approach_date_full": "2004-Mar-23 15:33",
            "epoch_date_close_approach": 1080055980000,
            "relative_velocity": {
                "kilometers_per_second": "7.765518578",
                "kilometers_per_hour": "27955.8668809147",
                "miles_per_hour": "17370.6885071994"
            },
            "miss_distance": {
                "astronomical": "0.0147791493",
                "lunar": "5.7490890777",
                "kilometers": "2210929.255691991",
                "miles": "1373807.7351758358"
            },
            "orbiting_body": "Earth"
        }
    ],
    "orbital_data": {
        "orbit_id": "8",
        "orbit_determination_date": "2017-04-06 09:13:02",
        "first_observation_date": "2004-03-22",
        "last_observation_date": "2004-03-25",
        "data_arc_in_days": 3,
        "observations_used": 17,
        "orbit_uncertainty": "8",
        "minimum_orbit_intersection": ".0137901",
        "jupiter_tisserand_invariant": "3.404",
        "epoch_osculation": "2453087.5",
        "eccentricity": ".551923573988253",
        "semi_major_axis": "2.250591715254996",
        "inclination": "5.531481517703233",
        "ascending_node_longitude": "2.431530367344225",
        "orbital_period": "1233.228351998674",
        "perihelion_distance": "1.008437092183106",
        "perihelion_argument": "173.4231468020745",
        "aphelion_distance": "3.492746338326886",
        "perihelion_time": "2453082.156935660651",
        "mean_anomaly": "1.55972992272538",
        "mean_motion": ".2919167398451013",
        "equinox": "J2000",
        "orbit_class": {
            "orbit_class_type": "APO",
            "orbit_class_description": "Near-Earth asteroid orbits which cross the Earth’s orbit similar to that of 1862 Apollo",
            "orbit_class_range": "a (semi-major axis) > 1.0 AU; q (perihelion) < 1.017 AU"
        }
    },
    "is_sentry_object": false
}